ONEWEB-0319             
1 49105U 21075AG  26083.12490039  .00000139  00000+0  32593-3 0  9998
2 49105  87.9172  22.7598 0001294  77.8662 282.2615 13.17650308222400
ONEWEB-0323             
1 49106U 21075AH  26083.18882395  .00001419  00000+0  39084-2 0  9998
2 49106  87.9015   7.5216 0001346  65.7668 294.3601 13.12449729223403
ONEWEB-0329             
1 49107U 21075AJ  26083.20927966  .00000116  00000+0  26570-3 0  9996
2 49107  87.9173  22.7434 0001824  73.9501 286.1831 13.17649140222393
ONEWEB-0330             
1 49108U 21075AK  26083.07644061 -.00000004  00000+0 -44073-4 0  9991
2 49108  87.9176  22.7858 0001984  71.5854 288.5492 13.16080847222413
ONEWEB-0292             
1 49186U 21083A   26083.15135673  .00000378  00000+0  10009-2 0  9991
2 49186  87.9010 337.1721 0001509  78.5779 281.5520 13.13469223219769
ONEWEB-0303             
1 49187U 21083B   26083.17060393  .00000065  00000+0  13192-3 0  9990
2 49187  87.9245 352.3508 0001616  76.5671 283.5641 13.18687367218772
ONEWEB-0306             
1 49188U 21083C   26083.16070664  .00000110  00000+0  24714-3 0  9995
2 49188  87.9248 352.3360 0002024  79.5988 280.5372 13.18687275218811
ONEWEB-0307             
1 49189U 21083D   26083.22159920 -.00000487  00000+0 -13680-2 0  9994
2 49189  87.9012 337.1468 0001580  76.3430 283.7875 13.13477812219772
ONEWEB-0320             
1 49190U 21083E   26083.18107089  .00000098  00000+0  21852-3 0  9997
2 49190  87.9236 352.3591 0001763  77.5790 282.5540 13.18134076218775
ONEWEB-0321             
1 49191U 21083F   26083.27756546 -.00000003  00000+0 -39046-4 0  9999
2 49191  87.9148 291.3901 0002018  88.1737 271.9628 13.20771124225623
ONEWEB-0322             
1 49192U 21083G   26083.21737614  .00000240  00000+0  62124-3 0  9992
2 49192  87.9010 337.1527 0002084  89.4369 270.6999 13.13472056219762
ONEWEB-0324             
1 49193U 21083H   26083.30586259  .00000061  00000+0  12111-3 0  9992
2 49193  87.9249 352.3133 0001862  74.0712 286.0625 13.18687460218818
ONEWEB-0325             
1 49194U 21083J   26083.30916289  .00000004  00000+0 -22031-4 0  9994
2 49194  87.9243 352.3283 0001784  80.6356 279.4978 13.18687515218828
ONEWEB-0326             
1 49195U 21083K   26083.17239029  .00000096  00000+0  21193-3 0  9997
2 49195  87.9247 352.3460 0001481  79.2053 280.9246 13.18686563218795
ONEWEB-0327             
1 49196U 21083L   26083.17211032  .00000050  00000+0  95240-4 0  9997
2 49196  87.9240 352.3573 0001372  84.3925 275.7364 13.18685972218817
ONEWEB-0328             
1 49197U 21083M   26083.20721403 -.00000016  00000+0 -79071-4 0  9998
2 49197  87.9025 337.1168 0001773  75.0755 285.0571 13.13472262219741
ONEWEB-0331             
1 49198U 21083N   26083.16565295  .00000084  00000+0  18091-3 0  9996
2 49198  87.9249 352.3408 0001501  70.8318 289.2976 13.18688235218808
