[{"OBJECT_NAME":"ONEWEB-0319","OBJECT_ID":"2021-075AG","EPOCH":"2026-03-24T02:59:51.393696","MEAN_MOTION":13.17650308,"ECCENTRICITY":0.00012941,"INCLINATION":87.9172,"RA_OF_ASC_NODE":22.7598,"ARG_OF_PERICENTER":77.8662,"MEAN_ANOMALY":282.2615,"EPHEMERIS_TYPE":0,"CLASSIFICATION_TYPE":"U","NORAD_CAT_ID":49105,"ELEMENT_SET_NO":999,"REV_AT_EPOCH":22240,"BSTAR":0.00032592943,"MEAN_MOTION_DOT":1.39e-6,"MEAN_MOTION_DDOT":0},{"OBJECT_NAME":"ONEWEB-0323","OBJECT_ID":"2021-075AH","EPOCH":"2026-03-24T04:31:54.389280","MEAN_MOTION":13.12449729,"ECCENTRICITY":0.00013468,"INCLINATION":87.9015,"RA_OF_ASC_NODE":7.5216,"ARG_OF_PERICENTER":65.7668,"MEAN_ANOMALY":294.3601,"EPHEMERIS_TYPE":0,"CLASSIFICATION_TYPE":"U","NORAD_CAT_ID":49106,"ELEMENT_SET_NO":999,"REV_AT_EPOCH":22340,"BSTAR":0.0039084183,"MEAN_MOTION_DOT":1.419e-5,"MEAN_MOTION_DDOT":0},{"OBJECT_NAME":"ONEWEB-0329","OBJECT_ID":"2021-075AJ","EPOCH":"2026-03-24T05:01:21.762624","MEAN_MOTION":13.1764914,"ECCENTRICITY":0.00018242,"INCLINATION":87.9173,"RA_OF_ASC_NODE":22.7434,"ARG_OF_PERICENTER":73.9501,"MEAN_ANOMALY":286.1831,"EPHEMERIS_TYPE":0,"CLASSIFICATION_TYPE":"U","NORAD_CAT_ID":49107,"ELEMENT_SET_NO":999,"REV_AT_EPOCH":22239,"BSTAR":0.00026570154,"MEAN_MOTION_DOT":1.16e-6,"MEAN_MOTION_DDOT":0},{"OBJECT_NAME":"ONEWEB-0330","OBJECT_ID":"2021-075AK","EPOCH":"2026-03-24T01:50:04.468704","MEAN_MOTION":13.16080847,"ECCENTRICITY":0.00019845,"INCLINATION":87.9176,"RA_OF_ASC_NODE":22.7858,"ARG_OF_PERICENTER":71.5854,"MEAN_ANOMALY":288.5492,"EPHEMERIS_TYPE":0,"CLASSIFICATION_TYPE":"U","NORAD_CAT_ID":49108,"ELEMENT_SET_NO":999,"REV_AT_EPOCH":22241,"BSTAR":-4.4072747e-5,"MEAN_MOTION_DOT":-4.0e-8,"MEAN_MOTION_DDOT":0},{"OBJECT_NAME":"ONEWEB-0292","OBJECT_ID":"2021-083A","EPOCH":"2026-03-24T03:37:57.221472","MEAN_MOTION":13.13469223,"ECCENTRICITY":0.00015095,"INCLINATION":87.901,"RA_OF_ASC_NODE":337.1721,"ARG_OF_PERICENTER":78.5779,"MEAN_ANOMALY":281.552,"EPHEMERIS_TYPE":0,"CLASSIFICATION_TYPE":"U","NORAD_CAT_ID":49186,"ELEMENT_SET_NO":999,"REV_AT_EPOCH":21976,"BSTAR":0.0010008544,"MEAN_MOTION_DOT":3.78e-6,"MEAN_MOTION_DDOT":0},{"OBJECT_NAME":"ONEWEB-0303","OBJECT_ID":"2021-083B","EPOCH":"2026-03-24T04:05:40.179552","MEAN_MOTION":13.18687367,"ECCENTRICITY":0.0001616,"INCLINATION":87.9245,"RA_OF_ASC_NODE":352.3508,"ARG_OF_PERICENTER":76.5671,"MEAN_ANOMALY":283.5641,"EPHEMERIS_TYPE":0,"CLASSIFICATION_TYPE":"U","NORAD_CAT_ID":49187,"ELEMENT_SET_NO":999,"REV_AT_EPOCH":21877,"BSTAR":0.00013192205,"MEAN_MOTION_DOT":6.5e-7,"MEAN_MOTION_DDOT":0},{"OBJECT_NAME":"ONEWEB-0306","OBJECT_ID":"2021-083C","EPOCH":"2026-03-24T03:51:25.053696","MEAN_MOTION":13.18687275,"ECCENTRICITY":0.00020249,"INCLINATION":87.9248,"RA_OF_ASC_NODE":352.336,"ARG_OF_PERICENTER":79.5988,"MEAN_ANOMALY":280.5372,"EPHEMERIS_TYPE":0,"CLASSIFICATION_TYPE":"U","NORAD_CAT_ID":49188,"ELEMENT_SET_NO":999,"REV_AT_EPOCH":21881,"BSTAR":0.00024713857,"MEAN_MOTION_DOT":1.1e-6,"MEAN_MOTION_DDOT":0},{"OBJECT_NAME":"ONEWEB-0307","OBJECT_ID":"2021-083D","EPOCH":"2026-03-24T05:19:06.170880","MEAN_MOTION":13.13477812,"ECCENTRICITY":0.00015804,"INCLINATION":87.9012,"RA_OF_ASC_NODE":337.1468,"ARG_OF_PERICENTER":76.343,"MEAN_ANOMALY":283.7875,"EPHEMERIS_TYPE":0,"CLASSIFICATION_TYPE":"U","NORAD_CAT_ID":49189,"ELEMENT_SET_NO":999,"REV_AT_EPOCH":21977,"BSTAR":-0.0013679632,"MEAN_MOTION_DOT":-4.87e-6,"MEAN_MOTION_DDOT":0},{"OBJECT_NAME":"ONEWEB-0320","OBJECT_ID":"2021-083E","EPOCH":"2026-03-24T04:20:44.524896","MEAN_MOTION":13.18134076,"ECCENTRICITY":0.00017639,"INCLINATION":87.9236,"RA_OF_ASC_NODE":352.3591,"ARG_OF_PERICENTER":77.579,"MEAN_ANOMALY":282.554,"EPHEMERIS_TYPE":0,"CLASSIFICATION_TYPE":"U","NORAD_CAT_ID":49190,"ELEMENT_SET_NO":999,"REV_AT_EPOCH":21877,"BSTAR":0.00021851714,"MEAN_MOTION_DOT":9.8e-7,"MEAN_MOTION_DDOT":0},{"OBJECT_NAME":"ONEWEB-0321","OBJECT_ID":"2021-083F","EPOCH":"2026-03-24T06:39:41.655744","MEAN_MOTION":13.20771124,"ECCENTRICITY":0.00020188,"INCLINATION":87.9148,"RA_OF_ASC_NODE":291.3901,"ARG_OF_PERICENTER":88.1737,"MEAN_ANOMALY":271.9628,"EPHEMERIS_TYPE":0,"CLASSIFICATION_TYPE":"U","NORAD_CAT_ID":49191,"ELEMENT_SET_NO":999,"REV_AT_EPOCH":22562,"BSTAR":-3.9046068e-5,"MEAN_MOTION_DOT":-3.0e-8,"MEAN_MOTION_DDOT":0},{"OBJECT_NAME":"ONEWEB-0322","OBJECT_ID":"2021-083G","EPOCH":"2026-03-24T05:13:01.298496","MEAN_MOTION":13.13472056,"ECCENTRICITY":0.00020842,"INCLINATION":87.901,"RA_OF_ASC_NODE":337.1527,"ARG_OF_PERICENTER":89.4369,"MEAN_ANOMALY":270.6999,"EPHEMERIS_TYPE":0,"CLASSIFICATION_TYPE":"U","NORAD_CAT_ID":49192,"ELEMENT_SET_NO":999,"REV_AT_EPOCH":21976,"BSTAR":0.00062124099,"MEAN_MOTION_DOT":2.4e-6,"MEAN_MOTION_DDOT":0},{"OBJECT_NAME":"ONEWEB-0324","OBJECT_ID":"2021-083H","EPOCH":"2026-03-24T07:20:26.527776","MEAN_MOTION":13.1868746,"ECCENTRICITY":0.00018626,"INCLINATION":87.9249,"RA_OF_ASC_NODE":352.3133,"ARG_OF_PERICENTER":74.0712,"MEAN_ANOMALY":286.0625,"EPHEMERIS_TYPE":0,"CLASSIFICATION_TYPE":"U","NORAD_CAT_ID":49193,"ELEMENT_SET_NO":999,"REV_AT_EPOCH":21881,"BSTAR":0.00012110768,"MEAN_MOTION_DOT":6.1e-7,"MEAN_MOTION_DDOT":0},{"OBJECT_NAME":"ONEWEB-0325","OBJECT_ID":"2021-083J","EPOCH":"2026-03-24T07:25:11.673696","MEAN_MOTION":13.18687515,"ECCENTRICITY":0.00017846,"INCLINATION":87.9243,"RA_OF_ASC_NODE":352.3283,"ARG_OF_PERICENTER":80.6356,"MEAN_ANOMALY":279.4978,"EPHEMERIS_TYPE":0,"CLASSIFICATION_TYPE":"U","NORAD_CAT_ID":49194,"ELEMENT_SET_NO":999,"REV_AT_EPOCH":21882,"BSTAR":-2.2031037e-5,"MEAN_MOTION_DOT":4.0e-8,"MEAN_MOTION_DDOT":0},{"OBJECT_NAME":"ONEWEB-0326","OBJECT_ID":"2021-083K","EPOCH":"2026-03-24T04:08:14.521056","MEAN_MOTION":13.18686563,"ECCENTRICITY":0.00014812,"INCLINATION":87.9247,"RA_OF_ASC_NODE":352.346,"ARG_OF_PERICENTER":79.2053,"MEAN_ANOMALY":280.9246,"EPHEMERIS_TYPE":0,"CLASSIFICATION_TYPE":"U","NORAD_CAT_ID":49195,"ELEMENT_SET_NO":999,"REV_AT_EPOCH":21879,"BSTAR":0.00021192982,"MEAN_MOTION_DOT":9.6e-7,"MEAN_MOTION_DDOT":0},{"OBJECT_NAME":"ONEWEB-0327","OBJECT_ID":"2021-083L","EPOCH":"2026-03-24T04:07:50.331648","MEAN_MOTION":13.18685972,"ECCENTRICITY":0.0001372,"INCLINATION":87.924,"RA_OF_ASC_NODE":352.3573,"ARG_OF_PERICENTER":84.3925,"MEAN_ANOMALY":275.7364,"EPHEMERIS_TYPE":0,"CLASSIFICATION_TYPE":"U","NORAD_CAT_ID":49196,"ELEMENT_SET_NO":999,"REV_AT_EPOCH":21881,"BSTAR":9.524038e-5,"MEAN_MOTION_DOT":5.0e-7,"MEAN_MOTION_DDOT":0},{"OBJECT_NAME":"ONEWEB-0328","OBJECT_ID":"2021-083M","EPOCH":"2026-03-24T04:58:23.292192","MEAN_MOTION":13.13472262,"ECCENTRICITY":0.00017738,"INCLINATION":87.9025,"RA_OF_ASC_NODE":337.1168,"ARG_OF_PERICENTER":75.0755,"MEAN_ANOMALY":285.0571,"EPHEMERIS_TYPE":0,"CLASSIFICATION_TYPE":"U","NORAD_CAT_ID":49197,"ELEMENT_SET_NO":999,"REV_AT_EPOCH":21974,"BSTAR":-7.9071058e-5,"MEAN_MOTION_DOT":-1.6e-7,"MEAN_MOTION_DDOT":0},{"OBJECT_NAME":"ONEWEB-0331","OBJECT_ID":"2021-083N","EPOCH":"2026-03-24T03:58:32.414880","MEAN_MOTION":13.18688235,"ECCENTRICITY":0.00015014,"INCLINATION":87.9249,"RA_OF_ASC_NODE":352.3408,"ARG_OF_PERICENTER":70.8318,"MEAN_ANOMALY":289.2976,"EPHEMERIS_TYPE":0,"CLASSIFICATION_TYPE":"U","NORAD_CAT_ID":49198,"ELEMENT_SET_NO":999,"REV_AT_EPOCH":21880,"BSTAR":0.00018090923,"MEAN_MOTION_DOT":8.4e-7,"MEAN_MOTION_DDOT":0}]
